[{"OBJECT_NAME":"STARLINK-31022","OBJECT_ID":"2023-203R","EPOCH":"2026-03-09T09:53:47.839200","MEAN_MOTION":15.27577525,"ECCENTRICITY":0.00010283,"INCLINATION":43.0034,"RA_OF_ASC_NODE":72.5499,"ARG_OF_PERICENTER":255.0909,"MEAN_ANOMALY":104.9828,"EPHEMERIS_TYPE":0,"CLASSIFICATION_TYPE":"U","NORAD_CAT_ID":58633,"ELEMENT_SET_NO":999,"REV_AT_EPOCH":12470,"BSTAR":-3.839622e-6,"MEAN_MOTION_DOT":-3.68e-6,"MEAN_MOTION_DDOT":0},{"OBJECT_NAME":"MESON-1","OBJECT_ID":"2024-043AK","EPOCH":"2026-03-09T21:36:16.481664","MEAN_MOTION":15.29893494,"ECCENTRICITY":0.00095452,"INCLINATION":97.5469,"RA_OF_ASC_NODE":205.2839,"ARG_OF_PERICENTER":227.1432,"MEAN_ANOMALY":132.9007,"EPHEMERIS_TYPE":0,"CLASSIFICATION_TYPE":"U","NORAD_CAT_ID":59131,"ELEMENT_SET_NO":999,"REV_AT_EPOCH":11189,"BSTAR":0.0002974823,"MEAN_MOTION_DOT":8.544e-5,"MEAN_MOTION_DDOT":0}]
